[
    {
        "Altitude(m)": 704556.6064527617,
        "Argument of Periapsis(deg)": 0.006834072711976239,
        "Eccentricity": 0.0,
        "Inclination(deg)": 45.0,
        "Latitude(deg)": -6.755920099929179,
        "Longitude(deg)": -82.2185734560385,
        "Mean Anomaly(deg)": -9.443670011511582,
        "RAAN(deg)": 24.99354883512508,
        "Satellite Name": "Constellation 1 131",
        "Satellite Number": 131,
        "Semi-Major Axis(m)": 7083131.272910544,
        "Time(s)": 114
    },
    {
        "Altitude(m)": 704547.9105042925,
        "Argument of Periapsis(deg)": 0.006894020718221645,
        "Eccentricity": 0.0,
        "Inclination(deg)": 45.0,
        "Latitude(deg)": -6.713021364625763,
        "Longitude(deg)": -82.17924339343347,
        "Mean Anomaly(deg)": -9.382968871261669,
        "RAAN(deg)": 24.99349224595951,
        "Satellite Name": "Constellation 1 131",
        "Satellite Number": 131,
        "Semi-Major Axis(m)": 7083131.272910544,
        "Time(s)": 115
    },
    {
        "Altitude(m)": 704539.2330952231,
        "Argument of Periapsis(deg)": 0.006953968724467052,
        "Eccentricity": 0.0,
        "Inclination(deg)": 45.0,
        "Latitude(deg)": -6.670118623849195,
        "Longitude(deg)": -82.13992084662088,
        "Mean Anomaly(deg)": -9.32226773101171,
        "RAAN(deg)": 24.99343565679394,
        "Satellite Name": "Constellation 1 131",
        "Satellite Number": 131,
        "Semi-Major Axis(m)": 7083131.272910544,
        "Time(s)": 116
    },
    {
        "Altitude(m)": 704530.5742461211,
        "Argument of Periapsis(deg)": 0.007013916730712457,
        "Eccentricity": 0.0,
        "Inclination(deg)": 45.0,
        "Latitude(deg)": -6.627211903588188,
        "Longitude(deg)": -82.10060576607918,
        "Mean Anomaly(deg)": -9.261566590761799,
        "RAAN(deg)": 24.99337906762837,
        "Satellite Name": "Constellation 1 131",
        "Satellite Number": 131,
        "Semi-Major Axis(m)": 7083131.272910544,
        "Time(s)": 117
    },
    {
        "Altitude(m)": 704521.9339774676,
        "Argument of Periapsis(deg)": 0.007073864736957864,
        "Eccentricity": 0.0,
        "Inclination(deg)": 45.0,
        "Latitude(deg)": -6.584301229817474,
        "Longitude(deg)": -82.0612981023026,
        "Mean Anomaly(deg)": -9.20086545051199,
        "RAAN(deg)": 24.993322478462797,
        "Satellite Name": "Constellation 1 131",
        "Satellite Number": 131,
        "Semi-Major Axis(m)": 7083131.272910544,
        "Time(s)": 118
    },
    {
        "Altitude(m)": 704513.3123096501,
        "Argument of Periapsis(deg)": 0.0071338127432032696,
        "Eccentricity": 0.0,
        "Inclination(deg)": 45.0,
        "Latitude(deg)": -6.541386628497772,
        "Longitude(deg)": -82.0219979738979,
        "Mean Anomaly(deg)": -9.140164310262083,
        "RAAN(deg)": 24.99326588929723,
        "Satellite Name": "Constellation 1 131",
        "Satellite Number": 131,
        "Semi-Major Axis(m)": 7083131.272910544,
        "Time(s)": 119
    },
    {
        "Altitude(m)": 704504.7092629701,
        "Argument of Periapsis(deg)": 0.007193760749448674,
        "Eccentricity": 0.0,
        "Inclination(deg)": 45.0,
        "Latitude(deg)": -6.4984681255762045,
        "Longitude(deg)": -81.98270499519649,
        "Mean Anomaly(deg)": -9.07946317001212,
        "RAAN(deg)": 24.99320930013166,
        "Satellite Name": "Constellation 1 131",
        "Satellite Number": 131,
        "Semi-Major Axis(m)": 7083131.272910544,
        "Time(s)": 120
    },
    {
        "Altitude(m)": 704496.1248576512,
        "Argument of Periapsis(deg)": 0.007253708755694079,
        "Eccentricity": 0.0,
        "Inclination(deg)": 45.0,
        "Latitude(deg)": -6.455545746986338,
        "Longitude(deg)": -81.94341928483654,
        "Mean Anomaly(deg)": -9.018762029762263,
        "RAAN(deg)": 24.993152710966093,
        "Satellite Name": "Constellation 1 131",
        "Satellite Number": 131,
        "Semi-Major Axis(m)": 7083131.272910544,
        "Time(s)": 121
    },
    {
        "Altitude(m)": 704487.5591138154,
        "Argument of Periapsis(deg)": 0.0073136567619394854,
        "Eccentricity": 0.0,
        "Inclination(deg)": 45.0,
        "Latitude(deg)": -6.412619518647945,
        "Longitude(deg)": -81.90414079337434,
        "Mean Anomaly(deg)": -8.95806088951235,
        "RAAN(deg)": 24.993096121800523,
        "Satellite Name": "Constellation 1 131",
        "Satellite Number": 131,
        "Semi-Major Axis(m)": 7083131.272910544,
        "Time(s)": 122
    },
    {
        "Altitude(m)": 704479.0120515035,
        "Argument of Periapsis(deg)": 0.0073736047681848904,
        "Eccentricity": 0.0,
        "Inclination(deg)": 45.0,
        "Latitude(deg)": -6.369689466467485,
        "Longitude(deg)": -81.86486947138171,
        "Mean Anomaly(deg)": -8.89735974926244,
        "RAAN(deg)": 24.993039532634953,
        "Satellite Name": "Constellation 1 131",
        "Satellite Number": 131,
        "Semi-Major Axis(m)": 7083131.272910544,
        "Time(s)": 123
    },
    {
        "Altitude(m)": 704470.4836906735,
        "Argument of Periapsis(deg)": 0.007433552774430298,
        "Eccentricity": 0.0,
        "Inclination(deg)": 45.0,
        "Latitude(deg)": -6.326755616337999,
        "Longitude(deg)": -81.82560526944557,
        "Mean Anomaly(deg)": -8.83665860901253,
        "RAAN(deg)": 24.992982943469382,
        "Satellite Name": "Constellation 1 131",
        "Satellite Number": 131,
        "Semi-Major Axis(m)": 7083131.272910544,
        "Time(s)": 124
    },
    {
        "Altitude(m)": 704461.9740511893,
        "Argument of Periapsis(deg)": 0.007493500780675703,
        "Eccentricity": 0.0,
        "Inclination(deg)": 45.0,
        "Latitude(deg)": -6.283817994139302,
        "Longitude(deg)": -81.78634813816807,
        "Mean Anomaly(deg)": -8.775957468762671,
        "RAAN(deg)": 24.992926354303815,
        "Satellite Name": "Constellation 1 131",
        "Satellite Number": 131,
        "Semi-Major Axis(m)": 7083131.272910544,
        "Time(s)": 125
    },
    {
        "Altitude(m)": 704453.4831528268,
        "Argument of Periapsis(deg)": 0.007553448786921108,
        "Eccentricity": 0.0,
        "Inclination(deg)": 45.0,
        "Latitude(deg)": -6.2408766257379185,
        "Longitude(deg)": -81.74709819626335,
        "Mean Anomaly(deg)": -8.71525632851276,
        "RAAN(deg)": 24.992869765138245,
        "Satellite Name": "Constellation 1 131",
        "Satellite Number": 131,
        "Semi-Major Axis(m)": 7083131.272910544,
        "Time(s)": 126
    },
    {
        "Altitude(m)": 704445.0110152812,
        "Argument of Periapsis(deg)": 0.007613396793166514,
        "Eccentricity": 0.0,
        "Inclination(deg)": 45.0,
        "Latitude(deg)": -6.197931536987365,
        "Longitude(deg)": -81.70785505816934,
        "Mean Anomaly(deg)": -8.654555188262849,
        "RAAN(deg)": 24.992813175972678,
        "Satellite Name": "Constellation 1 131",
        "Satellite Number": 131,
        "Semi-Major Axis(m)": 7083131.272910544,
        "Time(s)": 127
    },
    {
        "Altitude(m)": 704436.5576581476,
        "Argument of Periapsis(deg)": 0.007673344799411918,
        "Eccentricity": 0.0,
        "Inclination(deg)": 45.0,
        "Latitude(deg)": -6.1549827537281665,
        "Longitude(deg)": -81.66861884262995,
        "Mean Anomaly(deg)": -8.593854048012942,
        "RAAN(deg)": 24.992756586807104,
        "Satellite Name": "Constellation 1 131",
        "Satellite Number": 131,
        "Semi-Major Axis(m)": 7083131.272910544,
        "Time(s)": 128
    },
    {
        "Altitude(m)": 704428.123100946,
        "Argument of Periapsis(deg)": 0.007733292805657325,
        "Eccentricity": 0.0,
        "Inclination(deg)": 45.0,
        "Latitude(deg)": -6.112030301787966,
        "Longitude(deg)": -81.62938950030687,
        "Mean Anomaly(deg)": -8.533152907763082,
        "RAAN(deg)": 24.992699997641534,
        "Satellite Name": "Constellation 1 131",
        "Satellite Number": 131,
        "Semi-Major Axis(m)": 7083131.272910544,
        "Time(s)": 129
    },
    {
        "Altitude(m)": 704419.7073631048,
        "Argument of Periapsis(deg)": 0.00779324081190273,
        "Eccentricity": 0.0,
        "Inclination(deg)": 45.0,
        "Latitude(deg)": -6.069074206981485,
        "Longitude(deg)": -81.5901669818762,
        "Mean Anomaly(deg)": -8.472451767513173,
        "RAAN(deg)": 24.992643408475967,
        "Satellite Name": "Constellation 1 131",
        "Satellite Number": 131,
        "Semi-Major Axis(m)": 7083131.272910544,
        "Time(s)": 130
    },
    {
        "Altitude(m)": 704411.3104639563,
        "Argument of Periapsis(deg)": 0.007853188818148135,
        "Eccentricity": 0.0,
        "Inclination(deg)": 45.0,
        "Latitude(deg)": -6.026114495110876,
        "Longitude(deg)": -81.55095123802884,
        "Mean Anomaly(deg)": -8.41175062726326,
        "RAAN(deg)": 24.992586819310397,
        "Satellite Name": "Constellation 1 131",
        "Satellite Number": 131,
        "Semi-Major Axis(m)": 7083131.272910544,
        "Time(s)": 131
    },
    {
        "Altitude(m)": 704402.9324227548,
        "Argument of Periapsis(deg)": 0.007913136824393542,
        "Eccentricity": 0.0,
        "Inclination(deg)": 45.0,
        "Latitude(deg)": -5.98315119196561,
        "Longitude(deg)": -81.51174221947,
        "Mean Anomaly(deg)": -8.351049487013352,
        "RAAN(deg)": 24.99253023014483,
        "Satellite Name": "Constellation 1 131",
        "Satellite Number": 131,
        "Semi-Major Axis(m)": 7083131.272910544,
        "Time(s)": 132
    }
]